[{"OBJECT_NAME":"YAOGAN-43 01D","OBJECT_ID":"2024-148D","EPOCH":"2026-03-09T10:27:16.254720","MEAN_MOTION":15.28369377,"ECCENTRICITY":0.00025569,"INCLINATION":35.001,"RA_OF_ASC_NODE":61.7102,"ARG_OF_PERICENTER":326.2473,"MEAN_ANOMALY":33.808,"EPHEMERIS_TYPE":0,"CLASSIFICATION_TYPE":"U","NORAD_CAT_ID":60461,"ELEMENT_SET_NO":999,"REV_AT_EPOCH":8700,"BSTAR":0.00037765912,"MEAN_MOTION_DOT":0.00010676,"MEAN_MOTION_DDOT":0},{"OBJECT_NAME":"STARLINK-36542","OBJECT_ID":"2026-008A","EPOCH":"2026-03-09T09:25:55.140384","MEAN_MOTION":15.27630907,"ECCENTRICITY":0.00013345,"INCLINATION":42.9989,"RA_OF_ASC_NODE":207.1817,"ARG_OF_PERICENTER":182.2029,"MEAN_ANOMALY":177.8817,"EPHEMERIS_TYPE":0,"CLASSIFICATION_TYPE":"U","NORAD_CAT_ID":67445,"ELEMENT_SET_NO":999,"REV_AT_EPOCH":952,"BSTAR":0.0011507085,"MEAN_MOTION_DOT":0.00031588,"MEAN_MOTION_DDOT":0}]
